[{"OBJECT_NAME":"STARLINK-36412","OBJECT_ID":"2026-012AB","EPOCH":"2026-03-09T00:36:39.502080","MEAN_MOTION":15.27589895,"ECCENTRICITY":0.00070431,"INCLINATION":43.0014,"RA_OF_ASC_NODE":317.8493,"ARG_OF_PERICENTER":233.6209,"MEAN_ANOMALY":126.3993,"EPHEMERIS_TYPE":0,"CLASSIFICATION_TYPE":"U","NORAD_CAT_ID":67518,"ELEMENT_SET_NO":999,"REV_AT_EPOCH":766,"BSTAR":0.0010901534,"MEAN_MOTION_DOT":0.00029885,"MEAN_MOTION_DDOT":0},{"OBJECT_NAME":"CZ-4B R\/B","OBJECT_ID":"2008-053C","EPOCH":"2026-03-09T16:52:55.405920","MEAN_MOTION":15.20774751,"ECCENTRICITY":0.00860777,"INCLINATION":97.7895,"RA_OF_ASC_NODE":133.277,"ARG_OF_PERICENTER":241.1085,"MEAN_ANOMALY":118.1494,"EPHEMERIS_TYPE":0,"CLASSIFICATION_TYPE":"U","NORAD_CAT_ID":33410,"ELEMENT_SET_NO":999,"REV_AT_EPOCH":94950,"BSTAR":0.00029822835,"MEAN_MOTION_DOT":7.181e-5,"MEAN_MOTION_DDOT":0}]
